[{"OBJECT_NAME":"STARLINK-35831","OBJECT_ID":"2025-254AC","EPOCH":"2026-03-09T18:09:17.534016","MEAN_MOTION":15.30197857,"ECCENTRICITY":8.5e-5,"INCLINATION":53.1586,"RA_OF_ASC_NODE":229.4159,"ARG_OF_PERICENTER":101.3463,"MEAN_ANOMALY":258.7633,"EPHEMERIS_TYPE":0,"CLASSIFICATION_TYPE":"U","NORAD_CAT_ID":66374,"ELEMENT_SET_NO":999,"REV_AT_EPOCH":1902,"BSTAR":0.00067359825,"MEAN_MOTION_DOT":0.00019642,"MEAN_MOTION_DDOT":0},{"OBJECT_NAME":"FENGYUN 1C DEB","OBJECT_ID":"1999-025BDP","EPOCH":"2026-03-09T13:06:28.874592","MEAN_MOTION":14.76824991,"ECCENTRICITY":0.02629979,"INCLINATION":98.3487,"RA_OF_ASC_NODE":187.0157,"ARG_OF_PERICENTER":325.1899,"MEAN_ANOMALY":33.2345,"EPHEMERIS_TYPE":0,"CLASSIFICATION_TYPE":"U","NORAD_CAT_ID":31021,"ELEMENT_SET_NO":999,"REV_AT_EPOCH":74713,"BSTAR":0.00051474289,"MEAN_MOTION_DOT":6.356e-5,"MEAN_MOTION_DDOT":0}]
